H1 CPF  1  ASS 2019 12 05 00  4741 technosat            
H2 1704205  6203    42829 2019 12 05 00 00 00 2019 12 12 00 00 00   300 1 1  0 0 0
H9
10 0 58824  85500.000000  0       5771432.018     -3071515.002     -2412244.068
10 0 58824  85800.000000  0       4585180.927     -2928091.884     -4357525.728
10 0 58824  86100.000000  0       2934468.374     -2416861.058     -5844737.188
10 0 58825      0.000000  0       1007766.019     -1575710.101     -6719241.333
10 0 58825    300.000000  0       -981387.705      -485217.016     -6891063.210
10 0 58825    600.000000  0      -2818151.346       739316.115     -6343292.277
10 0 58825    900.000000  0      -4309267.828      1960019.748     -5133302.897
10 0 58825   1200.000000  0      -5303146.985      3031734.094     -3387017.896
10 0 58825   1500.000000  0      -5705465.304      3819049.226     -1286446.439
10 0 58825   1800.000000  0      -5488574.219      4213239.601       948827.008
10 0 58825   2100.000000  0      -4693372.989      4146859.002      3084653.249
10 0 58825   2400.000000  0      -3423136.958      3603786.714      4897245.237
10 0 58825   2700.000000  0      -1830185.225      2623221.608      6196871.135
10 0 58825   3000.000000  0        -97397.011      1297107.315      6847555.062
10 0 58825   3300.000000  0       1582884.339      -238605.804      6780861.809
10 0 58825   3600.000000  0       3030090.401     -1817849.932      6002866.838
10 0 58825   3900.000000  0       4094828.192     -3262252.955      4593943.535
10 0 58825   4200.000000  0       4674675.087     -4401334.290      2701150.092
10 0 58825   4500.000000  0       4724659.885     -5093004.591       523390.384
10 0 58825   4800.000000  0       4260971.634     -5241719.124     -1709633.254
10 0 58825   5100.000000  0       3357159.624     -4811532.266     -3762409.643
10 0 58825   5400.000000  0       2133313.546     -3831947.422     -5419324.937
10 0 58825   5700.000000  0        739964.738     -2395736.844     -6507618.805
10 0 58825   6000.000000  0       -660694.164      -649366.318     -6914902.823
10 0 58825   6300.000000  0      -1913680.811      1222459.622     -6599893.201
10 0 58825   6600.000000  0      -2888106.422      3016318.627     -5595956.535
10 0 58825   6900.000000  0      -3490614.526      4531863.603     -4007631.377
10 0 58825   7200.000000  0      -3674319.900      5594079.240     -2000324.573
10 0 58825   7500.000000  0      -3442344.151      6073702.690       216360.500
10 0 58825   7800.000000  0      -2845478.183      5903282.260      2410357.875
10 0 58825   8100.000000  0      -1974142.968      5086469.301      4351773.730
10 0 58825   8400.000000  0       -945695.911      3698982.485      5837332.098
10 0 58825   8700.000000  0        110955.240      1881226.982      6711614.837
10 0 58825   9000.000000  0       1071269.109      -176300.467      6882934.203
10 0 58825   9300.000000  0       1829583.346     -2253025.177      6332615.521
10 0 58825   9600.000000  0       2310734.135     -4121794.250      5117176.962
10 0 58825   9900.000000  0       2477680.344     -5573818.276      3363130.759
10 0 58825  10200.000000  0       2334357.892     -6442579.282      1254435.793
10 0 58825  10500.000000  0       1923344.328     -6623835.068      -986685.681
10 0 58825  10800.000000  0       1318532.647     -6088797.470     -3123743.156
10 0 58825  11100.000000  0        613777.116     -4888254.894     -4931878.325
10 0 58825  11400.000000  0        -90654.247     -3146955.371     -6222066.588
10 0 58825  11700.000000  0       -701686.577     -1049498.796     -6860623.279
10 0 58825  12000.000000  0      -1145237.903      1180001.270     -6782229.800
10 0 58825  12300.000000  0      -1374861.745      3301937.876     -5995834.519
10 0 58825  12600.000000  0      -1376466.101      5086600.583     -4583460.974
10 0 58825  12900.000000  0      -1168775.898      6338862.782     -2692120.158
10 0 58825  13200.000000  0       -799539.854      6919828.516      -519116.790
10 0 58825  13500.000000  0       -337887.737      6762868.565      1708235.527
10 0 58825  13800.000000  0        136193.487      5881758.336      3756590.049
10 0 58825  14100.000000  0        543740.041      4369474.203      5411402.587
10 0 58825  14400.000000  0        818302.962      2387878.626      6499527.818
10 0 58825  14700.000000  0        915455.449       149851.378      6907027.874
10 0 58825  15000.000000  0        819078.233     -2103743.213      6590701.140
10 0 58825  15300.000000  0        543711.162     -4129858.910      5582634.748
10 0 58825  15600.000000  0        132675.517     -5709522.520      3987410.846
10 0 58825  15900.000000  0       -347859.617     -6672019.969      1971939.524
10 0 58825  16200.000000  0       -818290.627     -6914399.715      -251645.009
10 0 58825  16500.000000  0      -1197297.451     -6413472.214     -2448698.185
10 0 58825  16800.000000  0      -1414102.079     -5228220.173     -4387733.246
10 0 58825  17100.000000  0      -1419356.160     -3492212.266     -5865544.122
10 0 58825  17400.000000  0      -1193032.746     -1397425.535     -6728520.076
10 0 58825  17700.000000  0       -748288.519       827854.040     -6887921.632
10 0 58825  18000.000000  0       -130948.639      2944100.158     -6328124.017
10 0 58825  18300.000000  0        585264.578      4725985.722     -5107740.243
10 0 58825  18600.000000  0       1307319.966      5986109.983     -3353782.241
10 0 58825  18900.000000  0       1934474.649      6594926.618     -1249071.199
10 0 58825  19200.000000  0       2371603.655      6494684.160       986392.400
10 0 58825  19500.000000  0       2542524.929      5705400.145      3118494.227
10 0 58825  19800.000000  0       2401381.789      4321850.415      4923865.435
10 0 58825  20100.000000  0       1940404.785      2501975.022      6213538.542
10 0 58825  20400.000000  0       1192921.400       448377.594      6852562.859
10 0 58825  20700.000000  0        231298.265     -1614442.024      6773699.767
10 0 58825  21000.000000  0       -839993.243     -3464551.073      5984305.655
10 0 58825  21300.000000  0      -1895603.998     -4906448.891      4565951.439
10 0 58825  21600.000000  0      -2803818.344     -5792095.178      2666672.745
10 0 58825  21900.000000  0      -3442973.046     -6036989.066       486059.352
10 0 58825  22200.000000  0      -3717635.647     -5629032.654     -1745880.435
10 0 58825  22500.000000  0      -3572139.760     -4628708.781     -3793754.155
10 0 58825  22800.000000  0      -2999336.293     -3160367.939     -5442490.777
10 0 58825  23100.000000  0      -2043246.455     -1396107.118     -6520212.723
10 0 58825  23400.000000  0       -795469.078       465073.818     -6915658.236
10 0 58825  23700.000000  0        613971.005      2219922.872     -6588759.892
10 0 58825  24000.000000  0       2030187.679      3682853.544     -5574092.014
10 0 58825  24300.000000  0       3290232.190      4705284.621     -3977309.877
10 0 58825  24600.000000  0       4241642.879      5190783.566     -1964718.413
10 0 58825  24900.000000  0       4760848.993      5104501.145       253502.082
10 0 58825  25200.000000  0       4769112.189      4475620.890      2445143.973
10 0 58825  25500.000000  0       4243670.913      3392335.832      4380569.743
10 0 58825  25800.000000  0       3222405.510      1989994.489      5857110.190
10 0 58825  26100.000000  0       1801324.795       434142.470      6720276.439
10 0 58825  26400.000000  0        125325.165     -1099092.098      6879529.623
10 0 58825  26700.000000  0      -1626619.805     -2442849.564      6317466.641
10 0 58825  27000.000000  0      -3260444.451     -3457668.730      5091837.526
10 0 58825  27300.000000  0      -4588455.375     -4046186.057      3330227.234
10 0 58825  27600.000000  0      -5451290.186     -4162962.227      1217410.589
10 0 58825  27900.000000  0      -5737655.628     -3818166.588     -1023925.866
10 0 58825  28200.000000  0      -5399004.189     -3074427.467     -3157266.306
10 0 58825  28500.000000  0      -4456708.623     -2037142.118     -4958164.234
10 0 58825  28800.000000  0      -3000649.122      -839815.236     -6238379.477
10 0 58825  29100.000000  0      -1179728.556       373199.029     -6865298.918
10 0 58825  29400.000000  0        814077.966      1464060.099     -6774818.538
10 0 58825  29700.000000  0       2766051.412      2316843.276     -5977115.699
10 0 58825  30000.000000  0       4461560.906      2849624.378     -4555382.600
10 0 58825  30300.000000  0       5709463.341      3022267.494     -2657601.632
10 0 58825  30600.000000  0       6363838.031      2839230.564      -481764.293
10 0 58825  30900.000000  0       6341496.725      2347036.394      1744507.820
10 0 58825  31200.000000  0       5632744.886      1626606.776      3787970.879
10 0 58825  31500.000000  0       4303705.170       781522.422      5434566.373
10 0 58825  31800.000000  0       2489812.558       -76084.974      6511971.027
10 0 58825  32100.000000  0        381518.548      -839964.737      6907341.030
10 0 58825  32400.000000  0      -1795892.007     -1422636.637      6578741.693
10 0 58825  32700.000000  0      -3806268.677     -1765359.228      5559535.887
10 0 58825  33000.000000  0      -5428156.613     -1844166.190      3955485.955
10 0 58825  33300.000000  0      -6479686.794     -1671412.388      1934484.969
10 0 58825  33600.000000  0      -6839912.231     -1292564.866      -290702.394
10 0 58825  33900.000000  0      -6463636.603      -778572.290     -2485237.059
10 0 58825  34200.000000  0      -5387229.717      -214848.567     -4417894.841
10 0 58825  34500.000000  0      -3724499.738       311400.739     -5886162.794
10 0 58825  34800.000000  0      -1653474.542       723566.349     -6737476.096
10 0 58825  35100.000000  0        603628.774       965923.964     -6884334.062
10 0 58825  35400.000000  0       2804474.975      1010609.711     -6312405.794
10 0 58825  35700.000000  0       4712323.396       860652.394     -5081566.734
99